{"type": "FeatureCollection", "features": [ {"type": "Feature", "properties": {"norad_id": 33492, "name": "GOSAT (IBUKI)", "group": "resource", "lat": 11.196352056473863, "lon": -91.42881224636061, "alt_km": 670.5138624681304, "timestamp": "2025-12-04T05:42:43.034595+00:00", "meta": {"OBJECT_NAME": "GOSAT (IBUKI)", "OBJECT_ID": "2009-002A", "EPOCH": "2025-12-03T20:45:52.301088", "MEAN_MOTION": 14.67545981, "ECCENTRICITY": 9.121e-05, "INCLINATION": 98.0771, "RA_OF_ASC_NODE": 86.5929, "ARG_OF_PERICENTER": 63.8564, "MEAN_ANOMALY": 296.2734, "EPHEMERIS_TYPE": 0, "CLASSIFICATION_TYPE": "U", "NORAD_CAT_ID": 33492, "ELEMENT_SET_NO": 999, "REV_AT_EPOCH": 90281, "BSTAR": 0.00031038459, "MEAN_MOTION_DOT": 1.713e-05, "MEAN_MOTION_DDOT": 0}, "tle": {"line1": "1 33492U 09002A   25337.86518867  .00001713  00000+0  31038-3 0  9990", "line2": "2 33492  98.0771  86.5929 0000912  63.8564 296.2734 14.67545981902811"}}, "geometry": {"type": "Point", "coordinates": [-91.42881224636061, 11.196352056473863]}}, {"type": "Feature", "properties": {"norad_id": 35681, "name": "DEIMOS-1", "group": "resource", "lat": 20.198085781745526, "lon": 136.3789702250092, "alt_km": 644.926982891524, "timestamp": "2025-12-04T05:42:43.034606+00:00", "meta": {"OBJECT_NAME": "DEIMOS-1", "OBJECT_ID": "2009-041A", "EPOCH": "2025-12-03T23:06:25.373088", "MEAN_MOTION": 14.74931905, "ECCENTRICITY": 0.00026862, "INCLINATION": 97.7146, "RA_OF_ASC_NODE": 138.9752, "ARG_OF_PERICENTER": 95.9756, "MEAN_ANOMALY": 264.176, "EPHEMERIS_TYPE": 0, "CLASSIFICATION_TYPE": "U", "NORAD_CAT_ID": 35681, "ELEMENT_SET_NO": 999, "REV_AT_EPOCH": 87810, "BSTAR": 0.00020692941, "MEAN_MOTION_DOT": 1.342e-05, "MEAN_MOTION_DDOT": 0}, "tle": {"line1": "1 35681U 09041A   25337.96279367  .00001342  00000+0  20693-3 0  9998", "line2": "2 35681  97.7146 138.9752 0002686  95.9756 264.1760 14.74931905878100"}}, "geometry": {"type": "Point", "coordinates": [136.3789702250092, 20.198085781745526]}}, {"type": "Feature", "properties": {"norad_id": 35682, "name": "DUBAISAT-1", "group": "resource", "lat": -33.63088161987783, "lon": 114.39637810367624, "alt_km": 645.9491450496962, "timestamp": "2025-12-04T05:42:43.034617+00:00", "meta": {"OBJECT_NAME": "DUBAISAT-1", "OBJECT_ID": "2009-041B", "EPOCH": "2025-12-03T21:43:21.494496", "MEAN_MOTION": 14.74564092, "ECCENTRICITY": 0.00101182, "INCLINATION": 97.9785, "RA_OF_ASC_NODE": 108.7155, "ARG_OF_PERICENTER": 344.7511, "MEAN_ANOMALY": 15.3391, "EPHEMERIS_TYPE": 0, "CLASSIFICATION_TYPE": "U", "NORAD_CAT_ID": 35682, "ELEMENT_SET_NO": 999, "REV_AT_EPOCH": 87631, "BSTAR": 0.00034587999, "MEAN_MOTION_DOT": 2.255e-05, "MEAN_MOTION_DDOT": 0}, "tle": {"line1": "1 35682U 09041B   25337.90510989  .00002255  00000+0  34588-3 0  9993", "line2": "2 35682  97.9785 108.7155 0010118 344.7511  15.3391 14.74564092876313"}}, "geometry": {"type": "Point", "coordinates": [114.39637810367624, -33.63088161987783]}}, {"type": "Feature", "properties": {"norad_id": 35931, "name": "OCEANSAT-2", "group": "resource", "lat": -80.61578567125515, "lon": 40.741824631777256, "alt_km": 913.1247939820296, "timestamp": "2025-12-04T05:42:43.034627+00:00", "meta": {"OBJECT_NAME": "OCEANSAT-2", "OBJECT_ID": "2009-051A", "EPOCH": "2025-12-03T23:15:26.670816", "MEAN_MOTION": 13.99626568, "ECCENTRICITY": 0.00165706, "INCLINATION": 98.223, "RA_OF_ASC_NODE": 339.459, "ARG_OF_PERICENTER": 67.8446, "MEAN_ANOMALY": 292.4477, "EPHEMERIS_TYPE": 0, "CLASSIFICATION_TYPE": "U", "NORAD_CAT_ID": 35931, "ELEMENT_SET_NO": 999, "REV_AT_EPOCH": 85202, "BSTAR": -7.2665432e-05, "MEAN_MOTION_DOT": -1.44e-06, "MEAN_MOTION_DDOT": 0}, "tle": {"line1": "1 35931U 09051A   25337.96905869 -.00000144  00000+0 -72665-4 0  9998", "line2": "2 35931  98.2230 339.4590 0016570  67.8446 292.4477 13.99626568852021"}}, "geometry": {"type": "Point", "coordinates": [40.741824631777256, -80.61578567125515]}}, {"type": "Feature", "properties": {"norad_id": 35946, "name": "WORLDVIEW-2 (WV-2)", "group": "resource", "lat": -46.20788946126389, "lon": 58.390529431155265, "alt_km": 775.7206492766582, "timestamp": "2025-12-04T05:42:43.034638+00:00", "meta": {"OBJECT_NAME": "WORLDVIEW-2 (WV-2)", "OBJECT_ID": "2009-055A", "EPOCH": "2025-12-03T21:34:40.345248", "MEAN_MOTION": 14.37646406, "ECCENTRICITY": 0.00054379, "INCLINATION": 98.4771, "RA_OF_ASC_NODE": 49.1069, "ARG_OF_PERICENTER": 88.0941, "MEAN_ANOMALY": 272.0868, "EPHEMERIS_TYPE": 0, "CLASSIFICATION_TYPE": "U", "NORAD_CAT_ID": 35946, "ELEMENT_SET_NO": 999, "REV_AT_EPOCH": 84758, "BSTAR": 0.00013956422, "MEAN_MOTION_DOT": 3.76e-06, "MEAN_MOTION_DDOT": 0}, "tle": {"line1": "1 35946U 09055A   25337.89907807  .00000376  00000+0  13956-3 0  9996", "line2": "2 35946  98.4771  49.1069 0005437  88.0941 272.0868 14.37646406847589"}}, "geometry": {"type": "Point", "coordinates": [58.390529431155265, -46.20788946126389]}}, {"type": "Feature", "properties": {"norad_id": 36036, "name": "SMOS", "group": "resource", "lat": -72.8202578848863, "lon": -167.89254864416878, "alt_km": 767.0812176266354, "timestamp": "2025-12-04T05:42:43.034648+00:00", "meta": {"OBJECT_NAME": "SMOS", "OBJECT_ID": "2009-059A", "EPOCH": "2025-12-03T11:42:47.292768", "MEAN_MOTION": 14.39788746, "ECCENTRICITY": 0.00010256, "INCLINATION": 98.4384, "RA_OF_ASC_NODE": 162.673, "ARG_OF_PERICENTER": 72.1979, "MEAN_ANOMALY": 287.9321, "EPHEMERIS_TYPE": 0, "CLASSIFICATION_TYPE": "U", "NORAD_CAT_ID": 36036, "ELEMENT_SET_NO": 999, "REV_AT_EPOCH": 84529, "BSTAR": 0.00020750236, "MEAN_MOTION_DOT": 6.07e-06, "MEAN_MOTION_DDOT": 0}, "tle": {"line1": "1 36036U 09059A   25337.48804737  .00000607  00000+0  20750-3 0  9991", "line2": "2 36036  98.4384 162.6730 0001025  72.1979 287.9321 14.39788746845291"}}, "geometry": {"type": "Point", "coordinates": [-167.89254864416878, -72.8202578848863]}}, {"type": "Feature", "properties": {"norad_id": 36110, "name": "YAOGAN-7", "group": "resource", "lat": 29.275111565041172, "lon": -144.51436665540817, "alt_km": 632.1191231364919, "timestamp": "2025-12-04T05:42:43.034658+00:00", "meta": {"OBJECT_NAME": "YAOGAN-7", "OBJECT_ID": "2009-069A", "EPOCH": "2025-12-03T16:34:40.091520", "MEAN_MOTION": 14.7771001, "ECCENTRICITY": 0.00237853, "INCLINATION": 98.0303, "RA_OF_ASC_NODE": 219.4798, "ARG_OF_PERICENTER": 311.8375, "MEAN_ANOMALY": 48.0804, "EPHEMERIS_TYPE": 0, "CLASSIFICATION_TYPE": "U", "NORAD_CAT_ID": 36110, "ELEMENT_SET_NO": 999, "REV_AT_EPOCH": 86075, "BSTAR": 0.00016280036, "MEAN_MOTION_DOT": 1.118e-05, "MEAN_MOTION_DDOT": 0}, "tle": {"line1": "1 36110U 09069A   25337.69074180  .00001118  00000+0  16280-3 0  9990", "line2": "2 36110  98.0303 219.4798 0023785 311.8375  48.0804 14.77710010860757"}}, "geometry": {"type": "Point", "coordinates": [-144.51436665540817, 29.275111565041172]}}, {"type": "Feature", "properties": {"norad_id": 36605, "name": "TANDEM-X", "group": "resource", "lat": 82.52948911161918, "lon": -101.92820684600338, "alt_km": 499.6775428373403, "timestamp": "2025-12-04T05:42:43.034669+00:00", "meta": {"OBJECT_NAME": "TANDEM-X", "OBJECT_ID": "2010-030A", "EPOCH": "2025-12-03T15:05:32.620128", "MEAN_MOTION": 15.19160106, "ECCENTRICITY": 0.00017772, "INCLINATION": 97.4443, "RA_OF_ASC_NODE": 343.1419, "ARG_OF_PERICENTER": 93.6994, "MEAN_ANOMALY": 266.4444, "EPHEMERIS_TYPE": 0, "CLASSIFICATION_TYPE": "U", "NORAD_CAT_ID": 36605, "ELEMENT_SET_NO": 999, "REV_AT_EPOCH": 85695, "BSTAR": 0.00010004139, "MEAN_MOTION_DOT": 2.035e-05, "MEAN_MOTION_DDOT": 0}, "tle": {"line1": "1 36605U 10030A   25337.62884977  .00002035  00000+0  10004-3 0  9992", "line2": "2 36605  97.4443 343.1419 0001777  93.6994 266.4444 15.19160106856953"}}, "geometry": {"type": "Point", "coordinates": [-101.92820684600338, 82.52948911161918]}}, {"type": "Feature", "properties": {"norad_id": 36795, "name": "CARTOSAT-2B", "group": "resource", "lat": -73.14531734120278, "lon": 54.394791103581646, "alt_km": 649.5596463782704, "timestamp": "2025-12-04T05:42:43.034679+00:00", "meta": {"OBJECT_NAME": "CARTOSAT-2B", "OBJECT_ID": "2010-035A", "EPOCH": "2025-12-03T23:33:19.681920", "MEAN_MOTION": 14.78766526, "ECCENTRICITY": 0.00128855, "INCLINATION": 97.7866, "RA_OF_ASC_NODE": 27.2959, "ARG_OF_PERICENTER": 103.2976, "MEAN_ANOMALY": 256.9674, "EPHEMERIS_TYPE": 0, "CLASSIFICATION_TYPE": "U", "NORAD_CAT_ID": 36795, "ELEMENT_SET_NO": 999, "REV_AT_EPOCH": 83100, "BSTAR": 0.00017292735, "MEAN_MOTION_DOT": 1.222e-05, "MEAN_MOTION_DDOT": 0}, "tle": {"line1": "1 36795U 10035A   25337.98147780  .00001222  00000+0  17293-3 0  9994", "line2": "2 36795  97.7866  27.2959 0012885 103.2976 256.9674 14.78766526831004"}}, "geometry": {"type": "Point", "coordinates": [54.394791103581646, -73.14531734120278]}}, {"type": "Feature", "properties": {"norad_id": 36834, "name": "YAOGAN-10", "group": "resource", "lat": -7.5207720372597615, "lon": 177.07002652028476, "alt_km": 619.1940042864271, "timestamp": "2025-12-04T05:42:43.034689+00:00", "meta": {"OBJECT_NAME": "YAOGAN-10", "OBJECT_ID": "2010-038A", "EPOCH": "2025-12-03T19:57:32.552064", "MEAN_MOTION": 14.84554289, "ECCENTRICITY": 0.00015101, "INCLINATION": 97.915, "RA_OF_ASC_NODE": 357.7191, "ARG_OF_PERICENTER": 84.468, "MEAN_ANOMALY": 92.504, "EPHEMERIS_TYPE": 0, "CLASSIFICATION_TYPE": "U", "NORAD_CAT_ID": 36834, "ELEMENT_SET_NO": 999, "REV_AT_EPOCH": 82821, "BSTAR": 0.00024459282, "MEAN_MOTION_DOT": 2.01e-05, "MEAN_MOTION_DDOT": 0}, "tle": {"line1": "1 36834U 10038A   25337.83162676  .00002010  00000+0  24459-3 0  9994", "line2": "2 36834  97.9150 357.7191 0001510  84.4680  92.5040 14.84554289828218"}}, "geometry": {"type": "Point", "coordinates": [177.07002652028476, -7.5207720372597615]}}]}